NORAD_CAT_ID,OBJECT_NAME,OBJECT_TYPE,EPOCH,MEAN_MOTION,ECCENTRICITY,INCLINATION,RA_OF_ASC_NODE,ARG_OF_PERICENTER,MEAN_ANOMALY,BSTAR,MEAN_MOTION_DOT,MEAN_MOTION_DDOT,TLE_LINE0,TLE_LINE1,TLE_LINE2,SEMIMAJOR_AXIS,PERIOD,APOGEE,PERIGEE,DECAYED
52127.0,STARLINK-3715,PAYLOAD,2024-06-29 03:16:23,15.0882399,0.0001472,53.2178,325.914,88.1488,271.9672,-0.00019788,-3.434e-05,0.0,0 STARLINK-3715,1 52127U 22029AR  24181.13638334 -.00003434  00000-0 -19788-3 0  9991,2 52127  53.2178 325.9140 0001472  88.1488 271.9672 15.08823990127548,6917.929,95.439,540.813,538.776,0.0
52127.0,STARLINK-3715,PAYLOAD,2024-06-29 12:48:42,15.08831284,0.0001229,53.2154,324.1351,58.3412,301.77,-6.2119e-05,-1.276e-05,0.0,0 STARLINK-3715,1 52127U 22029AR  24181.53382075 -.00001276  00000-0 -62119-4 0  9992,2 52127  53.2154 324.1351 0001229  58.3412 301.7700 15.08831284127609,6917.907,95.438,540.622,538.922,0.0
52127.0,STARLINK-3715,PAYLOAD,2024-06-29 14:24:04,15.08839841,0.0001386,53.2157,323.8347,81.6347,278.4802,5.6938e-05,6.18e-06,0.0,0 STARLINK-3715,1 52127U 22029AR  24181.60005665  .00000618  00000-0  56938-4 0  9996,2 52127  53.2157 323.8347 0001386  81.6347 278.4802 15.08839841127614,6917.881,95.438,540.705,538.787,0.0
52127.0,STARLINK-3715,PAYLOAD,2024-06-29 15:59:28,15.08840912,0.0001372,53.2156,323.5367,82.1612,277.9536,8.2361e-05,1.023e-05,0.0,0 STARLINK-3715,1 52127U 22029AR  24181.66629634  .00001023  00000-0  82361-4 0  9990,2 52127  53.2156 323.5367 0001372  82.1612 277.9536 15.08840912127628,6917.878,95.437,540.692,538.793,0.0
52127.0,STARLINK-3715,PAYLOAD,2024-06-30 09:28:42,15.08833158,0.0001052,53.2163,320.2662,85.2066,274.9047,0.00011561,1.552e-05,0.0,0 STARLINK-3715,1 52127U 22029AR  24182.39494131  .00001552  00000-0  11561-3 0  9993,2 52127  53.2163 320.2662 0001052  85.2066 274.9047 15.08833158127730,6917.901,95.438,540.494,539.039,0.0
52127.0,STARLINK-3715,PAYLOAD,2024-06-30 14:14:52,15.08838851,0.0001249,53.2166,319.3747,82.1848,277.9286,4.9215e-05,4.95e-06,0.0,0 STARLINK-3715,1 52127U 22029AR  24182.59365881  .00000495  00000-0  49215-4 0  9997,2 52127  53.2166 319.3747 0001249  82.1848 277.9286 15.08838851127764,6917.884,95.438,540.613,538.885,0.0
52127.0,STARLINK-3715,PAYLOAD,2024-06-30 15:50:14,15.08847469,0.0001315,53.2169,319.0775,72.2633,287.8503,-7.4557e-05,-1.475e-05,0.0,0 STARLINK-3715,1 52127U 22029AR  24182.65989479 -.00001475  00000-0 -74557-4 0  9997,2 52127  53.2169 319.0775 0001315  72.2633 287.8503 15.08847469127779,6917.858,95.437,540.632,538.813,0.0
52127.0,STARLINK-3715,PAYLOAD,2024-07-01 12:30:16,15.0883344,0.0001292,53.2161,315.2125,74.2549,285.8585,0.00011164,1.489e-05,0.0,0 STARLINK-3715,1 52127U 22029AR  24183.52102463  .00001489  00000-0  11164-3 0  9991,2 52127  53.2161 315.2125 0001292  74.2549 285.8585 15.08833440127907,6917.9,95.438,540.659,538.872,0.0
52127.0,STARLINK-3715,PAYLOAD,2024-07-01 14:05:39,15.08833745,0.0001256,53.2162,314.9146,74.1449,285.9682,0.00011202,1.495e-05,0.0,0 STARLINK-3715,1 52127U 22029AR  24183.58726480  .00001495  00000-0  11202-3 0  9998,2 52127  53.2162 314.9146 0001256  74.1449 285.9682 15.08833745127913,6917.9,95.438,540.633,538.896,0.0
52127.0,STARLINK-3715,PAYLOAD,2024-07-01 15:41:02,15.08835895,0.0001053,53.2164,314.6134,79.2285,280.8825,0.00019117,2.756e-05,0.0,0 STARLINK-3715,1 52127U 22029AR  24183.65350128  .00002756  00000-0  19117-3 0  9992,2 52127  53.2164 314.6134 0001053  79.2285 280.8825 15.08835895127920,6917.893,95.438,540.486,539.029,0.0
52127.0,STARLINK-3715,PAYLOAD,2024-07-02 13:56:26,15.08838466,0.0001172,53.2176,310.4551,72.1901,287.9219,0.00010846,1.439e-05,0.0,0 STARLINK-3715,1 52127U 22029AR  24184.58086442  .00001439  00000-0  10846-3 0  9997,2 52127  53.2176 310.4551 0001172  72.1901 287.9219 15.08838466128067,6917.885,95.438,540.561,538.939,0.0
52127.0,STARLINK-3715,PAYLOAD,2024-07-02 18:42:35,15.08848012,0.0001034,53.2168,309.5608,82.0455,278.0655,0.00014883,2.082e-05,0.0,0 STARLINK-3715,1 52127U 22029AR  24184.77957542  .00002082  00000-0  14883-3 0  9996,2 52127  53.2168 309.5608 0001034  82.0455 278.0655 15.08848012128097,6917.856,95.437,540.436,539.006,0.0
52127.0,STARLINK-3715,PAYLOAD,2024-07-03 12:11:50,15.08836528,0.0001165,53.2153,306.285,62.2634,297.8476,4.9867e-05,5.06e-06,0.0,0 STARLINK-3715,1 52127U 22029AR  24185.50822793  .00000506  00000-0  49867-4 0  9997,2 52127  53.2153 306.2850 0001165  62.2634 297.8476 15.08836528128200,6917.891,95.438,540.562,538.95,0.0
52127.0,STARLINK-3715,PAYLOAD,2024-07-03 16:57:59,15.08841722,0.0001071,53.2165,305.3985,79.5357,280.5756,0.00010207,1.337e-05,0.0,0 STARLINK-3715,1 52127U 22029AR  24185.70694377  .00001337  00000-0  10207-3 0  9992,2 52127  53.2165 305.3985 0001071  79.5357 280.5756 15.08841722128236,6917.875,95.437,540.481,538.999,0.0
52127.0,STARLINK-3715,PAYLOAD,2024-07-04 13:38:00,15.08841359,0.0001109,53.2169,301.5319,86.6553,273.4566,1.5229e-05,-4.5e-07,0.0,0 STARLINK-3715,1 52127U 22029AR  24186.56806696 -.00000045  00000-0  15229-4 0  9992,2 52127  53.2169 301.5319 0001109  86.6553 273.4566 15.08841359128368,6917.876,95.437,540.508,538.974,0.0
52127.0,STARLINK-3715,PAYLOAD,2024-07-04 16:48:46,15.08844977,0.0001237,53.2177,300.9374,89.4584,270.655,7.4163e-05,8.93e-06,0.0,0 STARLINK-3715,1 52127U 22029AR  24186.70054377  .00000893  00000-0  74163-4 0  9991,2 52127  53.2177 300.9374 0001237  89.4584 270.6550 15.08844977128381,6917.865,95.437,540.586,538.874,0.0
52127.0,STARLINK-3715,PAYLOAD,2024-07-05 13:28:48,15.08839924,9.37e-05,53.2172,297.0723,80.3601,279.7497,3.1476e-05,2.13e-06,0.0,0 STARLINK-3715,1 52127U 22029AR  24187.56166765  .00000213  00000-0  31476-4 0  9997,2 52127  53.2172 297.0723 0000937  80.3601 279.7497 15.08839924128517,6917.881,95.438,540.394,539.097,0.0
52127.0,STARLINK-3715,PAYLOAD,2024-07-05 15:04:10,15.0884836,0.0001131,53.2167,296.7761,83.4694,276.6427,0.00013725,1.898e-05,0.0,0 STARLINK-3715,1 52127U 22029AR  24187.62789983  .00001898  00000-0  13725-3 0  9993,2 52127  53.2167 296.7761 0001131  83.4694 276.6427 15.08848360128526,6917.855,95.437,540.502,538.937,0.0
52127.0,STARLINK-3715,PAYLOAD,2024-07-06 00:36:29,15.08843365,0.0001234,53.2177,294.9936,83.6062,276.5071,0.00010297,1.351e-05,0.0,0 STARLINK-3715,1 52127U 22029AR  24188.02534366  .00001351  00000-0  10297-3 0  9996,2 52127  53.2177 294.9936 0001234  83.6062 276.5071 15.08843365128586,6917.87,95.437,540.589,538.881,0.0
52127.0,STARLINK-3715,PAYLOAD,2024-07-06 13:19:35,15.08838137,0.0001276,53.2166,292.6128,93.6071,266.5067,7.4212e-05,8.93e-06,0.0,0 STARLINK-3715,1 52127U 22029AR  24188.55526747  .00000893  00000-0  74212-4 0  9996,2 52127  53.2166 292.6128 0001276  93.6071 266.5067 15.08838137128663,6917.886,95.438,540.634,538.868,0.0
52127.0,STARLINK-3715,PAYLOAD,2024-07-07 09:59:35,15.0883793,0.0001413,53.2156,288.7478,84.0318,276.0835,5.2123e-05,5.42e-06,0.0,0 STARLINK-3715,1 52127U 22029AR  24189.41638820  .00000542  00000-0  52123-4 0  9996,2 52127  53.2156 288.7478 0001413  84.0318 276.0835 15.08837930128790,6917.887,95.438,540.729,538.774,0.0
52127.0,STARLINK-3715,PAYLOAD,2024-07-08 13:01:09,15.08837196,0.0001402,53.2162,283.6932,86.2088,273.9065,0.00016303,2.307e-05,0.0,0 STARLINK-3715,1 52127U 22029AR  24190.54246729  .00002307  00000-0  16303-3 0  9995,2 52127  53.2162 283.6932 0001402  86.2088 273.9065 15.08837196128966,6917.889,95.438,540.724,538.784,0.0
52127.0,STARLINK-3715,PAYLOAD,2024-07-09 12:51:56,15.08839197,0.0001414,53.2175,279.2324,88.0212,272.0942,0.00011872,1.602e-05,0.0,0 STARLINK-3715,1 52127U 22029AR  24191.53606694  .00001602  00000-0  11872-3 0  9999,2 52127  53.2175 279.2324 0001414  88.0212 272.0942 15.08839197129113,6917.883,95.438,540.726,538.77,0.0
52127.0,STARLINK-3715,PAYLOAD,2024-07-10 12:42:43,15.08837947,0.0001176,53.217,274.7736,85.9358,274.1768,-1.1382e-05,-4.69e-06,0.0,0 STARLINK-3715,1 52127U 22029AR  24192.52967234 -.00000469  00000-0 -11382-4 0  9998,2 52127  53.2170 274.7736 0001176  85.9358 274.1768 15.08837947129263,6917.887,95.438,540.565,538.938,0.0
52127.0,STARLINK-3715,PAYLOAD,2024-07-10 15:53:29,15.08842428,0.0001161,53.2165,274.1758,74.7479,285.3642,2.4628e-05,1.04e-06,0.0,0 STARLINK-3715,1 52127U 22029AR  24192.66214839  .00000104  00000-0  24628-4 0  9990,2 52127  53.2165 274.1758 0001161  74.7479 285.3642 15.08842428129286,6917.873,95.437,540.541,538.935,0.0
52127.0,STARLINK-3715,PAYLOAD,2024-07-11 12:33:30,15.08843956,0.0001201,53.2168,270.3102,80.98,279.1328,8.6029e-05,1.082e-05,0.0,0 STARLINK-3715,1 52127U 22029AR  24193.52326692  .00001082  00000-0  86029-4 0  9996,2 52127  53.2168 270.3102 0001201  80.9800 279.1328 15.08843956129416,6917.868,95.437,540.564,538.902,0.0
52127.0,STARLINK-3715,PAYLOAD,2024-07-12 12:24:18,15.08837831,0.0001378,53.2169,265.8498,73.4462,286.6681,1.5449e-05,-4.2e-07,0.0,0 STARLINK-3715,1 52127U 22029AR  24194.51687740 -.00000042  00000-0  15449-4 0  9994,2 52127  53.2169 265.8498 0001378  73.4462 286.6681 15.08837831129566,6917.887,95.438,540.705,538.799,0.0
52127.0,STARLINK-3715,PAYLOAD,2024-07-12 13:59:41,15.08840712,0.0001273,53.2167,265.5522,82.8051,277.3086,3.8475e-05,3.25e-06,0.0,0 STARLINK-3715,1 52127U 22029AR  24194.58311438  .00000325  00000-0  38475-4 0  9996,2 52127  53.2167 265.5522 0001273  82.8051 277.3086 15.08840712129570,6917.878,95.438,540.624,538.863,0.0
52127.0,STARLINK-3715,PAYLOAD,2024-07-12 21:56:37,15.08836247,0.0001186,53.2165,264.0643,89.9584,270.1544,4.1343e-05,3.7e-06,0.0,0 STARLINK-3715,1 52127U 22029AR  24194.91431730  .00000370  00000-0  41343-4 0  9999,2 52127  53.2165 264.0643 0001186  89.9584 270.1544 15.08836247129622,6917.892,95.438,540.577,538.936,0.0
52127.0,STARLINK-3715,PAYLOAD,2024-07-13 13:50:27,15.08846556,0.0001216,53.2162,261.0893,98.6035,261.5095,9.7485e-05,1.264e-05,0.0,0 STARLINK-3715,1 52127U 22029AR  24195.57671059  .00001264  00000-0  97485-4 0  9993,2 52127  53.2162 261.0893 0001216  98.6035 261.5095 15.08846556129725,6917.86,95.437,540.567,538.884,0.0
